CUTE-1 (CO-55)          
1 27844U 03031E   26154.54951729  .00000336  00000+0  16425-3 0  9994
2 27844  98.6736 163.2800 0008690 219.4250 140.6297 14.24327019189732
CUBESAT XI-IV (CO-57)   
1 27848U 03031J   26156.28822976  .00000257  00000+0  13217-3 0  9990
2 27848  98.6767 164.7190 0008404 234.4870 125.5525 14.23614275189688
CUBESAT XI-V            
1 28895U 05043F   26155.96828465  .00001691  00000+0  27373-3 0  9992
2 28895  98.2974 311.3347 0012930 241.7427 118.2475 14.72598149 99957
CUTE-1.7+APD II (CO-65) 
1 32785U 08021C   26156.24972102  .00004872  00000+0  30922-3 0  9992
2 32785  97.8271 137.4216 0010568  73.6598 286.5791 15.09330786983395
CANX-2                  
1 32790U 08021H   26156.19227899  .00003706  00000+0  26166-3 0  9998
2 32790  97.8638 135.7389 0012360  86.1502 274.1137 15.05527845983001
SEEDS II (CO-66)        
1 32791U 08021J   26156.25231518  .00016346  00000+0  52583-3 0  9995
2 32791  97.7518 153.5844 0002782  37.9418 322.2018 15.32323732985463
SWISSCUBE               
1 35932U 09051B   26156.26394345  .00001101  00000+0  22721-3 0  9992
2 35932  98.4043  63.9444 0005430 247.1913 112.8715 14.62457994887415
BEESAT-1                
1 35933U 09051C   26156.26718955  .00000929  00000+0  19630-3 0  9992
2 35933  98.3972  63.6080 0003898 265.1177  94.9579 14.61700495887444
ITUPSAT1                
1 35935U 09051E   26155.69953963  .00000958  00000+0  20796-3 0  9997
2 35935  98.4056  62.2366 0006134 280.9538  79.0971 14.60421767886916
TISAT 1                 
1 36799U 10035E   26156.09494933  .00024075  00000+0  79927-3 0  9998
2 36799  98.0706 101.5757 0000323  13.4506 346.6742 15.31230464865852
AEROCUBE 4.5A           
1 38767U 12048K   26156.03479031  .00278208  34355-4  10440-2 0  9995
2 38767  64.6278  71.0977 0018890 214.1459 145.8486 15.87334448370721
STRAND-1                
1 39090U 13009E   26156.22027919  .00000289  00000+0  11172-3 0  9999
2 39090  98.3919 336.7495 0007388 266.3997  93.6345 14.37155907695346
BRITE-AUSTRIA           
1 39091U 13009F   26156.22799600  .00000182  00000+0  76469-4 0  9996
2 39091  98.3993 335.9601 0008962 276.8792  83.1375 14.36537135695339
NEE-01 PEGASO           
1 39151U 13018B   26154.46520451  .00003190  00000+0  30780-3 0  9990
2 39151  98.1207 298.1637 0012177 203.9081 156.1574 14.93586684708654
POPACS 2                
1 39269U 13055E   26156.02975658  .00011902  00000+0  20339-3 0  9997
2 39269  80.9906 158.1064 0417287 232.8647 123.3771 14.90917397661400
POPACS 3                
1 39270U 13055F   26155.95590849  .00012246  00000+0  28872-3 0  9997
2 39270  81.0025 242.4436 0553153 107.2016 259.0486 14.55874788636773
ZACUBE-1 (TSHEPISOSAT)  
1 39417U 13066B   26156.14240747  .00004989  00000+0  38812-3 0  9993
2 39417  97.8104 118.4142 0039896 290.2475  69.4462 15.01107591678923
WNISAT-1                
1 39423U 13066H   26156.20151064  .00000697  00000+0  13613-3 0  9994
2 39423  97.7190 306.2094 0161667 269.6563  88.6111 14.58043740664988
TRITON-1                
1 39427U 13066M   26156.27489634  .00002296  00000+0  27964-3 0  9993
2 39427  97.8255  66.3532 0088438 273.4737  85.6364 14.81661319672324
GOMX-1                  
1 39430U 13066Q   26156.26939951  .00002321  00000+0  35190-3 0  9997
2 39430  97.6487 357.4837 0130033 115.3714 246.1022 14.69412923668166
CUBEBUG-2 (LO-74)       
1 39440U 13066AA  26154.33051700  .00005093  00000+0  47123-3 0  9999
2 39440  97.8904 103.2522 0059453  73.9566 286.8190 14.93641817674922
NEE-02 KRYSAOR          
1 39441U 13066AB  26155.75699965  .00002457  00000+0  27225-3 0  9990
2 39441  97.8893  95.0615 0067693 109.9850 250.8672 14.86564783674353
FUNCUBE-1 (AO-73)       
1 39444U 13066AE  26156.19019629  .00006789  00000+0  42375-3 0  9990
2 39444  97.8278 127.3873 0034649 243.1680 116.6003 15.09338913677850
UWE-3                   
1 39446U 13066AG  26155.64928530  .00004713  00000+0  40572-3 0  9993
2 39446  97.8702 111.6406 0049326   3.6109 356.5458 14.96922367675703
BRITE-CA1 (TORONTO)     
1 40020U 14033L   26156.28335357  .00000737  00000+0  11859-3 0  9996
2 40020  97.9726 285.4318 0077607 315.7555  43.7465 14.72659814640463
DUCHIFAT-1              
1 40021U 14033M   26155.66830056  .00095076  00000+0  10761-2 0  9994
2 40021  98.0472 213.0954 0004852 139.0185 221.1436 15.62101054653793
NANOSATC-BR1            
1 40024U 14033Q   26156.05089345  .00019638  00000+0  65634-3 0  9998
2 40024  98.0722 187.3677 0003176 199.6617 160.4501 15.31055935652125
QB50P1                  
1 40025U 14033R   26156.28625996  .00008026  00000+0  39735-3 0  9994
2 40025  98.0971 166.5996 0007024 264.5036  95.5395 15.18070423651221
QB50P2                  
1 40032U 14033Y   26156.21211322  .00007245  00000+0  39174-3 0  9998
2 40032  98.0754 152.3486 0006747 204.2735 155.8179 15.14995805650857
PERSEUS-M2              
1 40037U 14033AD  26156.28720892  .00003049  00000+0  28066-3 0  9993
2 40037  97.9975 106.5861 0011613 348.6081  11.4874 14.95480464649000
